DELTA 2 R/B(1)          
1 20453U 90008B   25356.18135605  .00045731  00000+0  71322-3 0  9998
2 20453  35.6079 319.5298 0110837 264.1613  94.6476 15.45945386914095
COSMOS 2058             
1 20465U 90010A   25356.09840385  .00005145  00000+0  30996-3 0  9999
2 20465  82.4704 123.8256 0009160 236.1266 123.9093 15.10558143930522
SL-14 R/B               
1 20466U 90010B   25355.71643322  .00000386  00000+0  43886-4 0  9995
2 20466  82.5020 340.6157 0019390 192.3015 167.7730 14.83478988916924
SL-14 R/B               
1 20511U 90018B   25356.13185428  .00000482  00000+0  57667-4 0  9998
2 20511  82.5218 295.5863 0016188 353.0628   7.0359 14.82055950911099
HST                     
1 20580U 90037B   25355.86999073  .00006006  00000+0  20469-3 0  9990
2 20580  28.4659 210.3388 0002211 349.8768  10.1783 15.28161696761398
SL-16 R/B               
1 20625U 90046B   25355.72384765 -.00000247  00000+0 -10282-3 0  9996
2 20625  70.9993 101.6548 0012072  57.4695 302.7592 14.14998422837366
COSMOS 2084             
1 20663U 90055A   25356.06911861  .00002608  00000+0  19505-3 0  9997
2 20663  62.7893 240.2038 0030206 175.9512 184.1838 15.05070935924636
SL-6 R/B(2)             
1 20666U 90055D   25356.14768522  .00001944  00000+0  15769-3 0  9993
2 20666  62.7811 157.4476 0013749 315.2546  44.7443 15.03114929926537
SL-8 R/B                
1 20775U 90078B   25356.15735019  .00017330  00000+0  53566-3 0  9998
2 20775  82.9057 320.8773 0370508 274.2000  81.6966 14.86273173797777
SL-8 R/B                
1 21088U 91006B   25356.13099476  .00000122  00000+0  10731-3 0  9994
2 21088  82.9418 227.7275 0021196 251.8892 218.9754 13.77491822753396
OKEAN-3                 
1 21397U 91039A   25356.12866690  .00002679  00000+0  19074-3 0  9990
2 21397  82.5171  51.9602 0013548 230.0682 129.9354 15.04176989853372
COSMOS 2151             
1 21422U 91042A   25356.16439131  .00001645  00000+0  13101-3 0  9990
2 21422  82.4963 158.4205 0011807 326.8457  33.2026 14.99720563851570
